QIANFAN-41              
1 62242U 24232F   25285.95510824  .00000143  00000+0  20262-3 0  9997
2 62242  89.0018  47.3172 0013917  14.5198 345.6350 13.50976803 91049
QIANFAN-42              
1 62243U 24232G   25285.93807940  .00000709  00000+0  30029-3 0  9994
2 62243  89.0016  44.2872 0012847 284.3656  75.6111 14.24388448 92712
QIANFAN-43              
1 62244U 24232H   25285.95102788  .00000143  00000+0  20320-3 0  9990
2 62244  89.0022  47.3802 0015585  19.0375 341.1356 13.50977890 59651
QIANFAN-44              
1 62245U 24232J   25285.93862046  .00000152  00000+0  21620-3 0  9993
2 62245  89.0021  47.1932 0013727  17.0273 343.1336 13.50979239 91121
QIANFAN-45              
1 62246U 24232K   25285.90576128  .00000142  00000+0  20211-3 0  9998
2 62246  89.0022  47.3409 0014363  16.4545 343.7070 13.50975797 91043
QIANFAN-46              
1 62247U 24232L   25285.93042329  .00000160  00000+0  22968-3 0  9994
2 62247  89.0020  47.4099 0014612  21.7809 338.3961 13.50976477 91008
QIANFAN-47              
1 62248U 24232M   25285.93455712  .00000155  00000+0  22172-3 0  9990
2 62248  89.0016  47.3449 0015005  20.7024 339.4732 13.50978225 91031
QIANFAN-48              
1 62249U 24232N   25285.97164652  .00000148  00000+0  21014-3 0  9991
2 62249  89.0020  47.3406 0017314  22.2947 337.8953 13.50974073 91041
